[{"OBJECT_NAME":"UFO 10 (USA 146)","OBJECT_ID":"1999-063A","EPOCH":"2026-04-04T05:11:38.889312","MEAN_MOTION":1.002766,"ECCENTRICITY":0.00045812,"INCLINATION":9.849,"RA_OF_ASC_NODE":27.5978,"ARG_OF_PERICENTER":312.4261,"MEAN_ANOMALY":267.4999,"EPHEMERIS_TYPE":0,"CLASSIFICATION_TYPE":"U","NORAD_CAT_ID":25967,"ELEMENT_SET_NO":999,"REV_AT_EPOCH":9660,"BSTAR":0,"MEAN_MOTION_DOT":-1.87e-6,"MEAN_MOTION_DDOT":0},{"OBJECT_NAME":"ASIASTAR","OBJECT_ID":"2000-016A","EPOCH":"2026-04-04T20:07:51.449088","MEAN_MOTION":1.00271761,"ECCENTRICITY":0.00050951,"INCLINATION":8.9609,"RA_OF_ASC_NODE":58.9264,"ARG_OF_PERICENTER":325.7866,"MEAN_ANOMALY":215.4218,"EPHEMERIS_TYPE":0,"CLASSIFICATION_TYPE":"U","NORAD_CAT_ID":26107,"ELEMENT_SET_NO":999,"REV_AT_EPOCH":9518,"BSTAR":0,"MEAN_MOTION_DOT":-3.31e-6,"MEAN_MOTION_DDOT":0},{"OBJECT_NAME":"USA 149 (DSP 20)","OBJECT_ID":"2000-024A","EPOCH":"2026-04-04T13:15:38.706912","MEAN_MOTION":1.00267836,"ECCENTRICITY":0.00016196,"INCLINATION":13.1164,"RA_OF_ASC_NODE":12.3719,"ARG_OF_PERICENTER":350.2382,"MEAN_ANOMALY":223.9079,"EPHEMERIS_TYPE":0,"CLASSIFICATION_TYPE":"U","NORAD_CAT_ID":26356,"ELEMENT_SET_NO":999,"REV_AT_EPOCH":3217,"BSTAR":0,"MEAN_MOTION_DOT":9.5e-7,"MEAN_MOTION_DDOT":0},{"OBJECT_NAME":"TDRS 8","OBJECT_ID":"2000-034A","EPOCH":"2026-04-04T22:18:37.439136","MEAN_MOTION":1.0027046,"ECCENTRICITY":0.00058488,"INCLINATION":12.57,"RA_OF_ASC_NODE":31.9344,"ARG_OF_PERICENTER":329.8279,"MEAN_ANOMALY":251.0016,"EPHEMERIS_TYPE":0,"CLASSIFICATION_TYPE":"U","NORAD_CAT_ID":26388,"ELEMENT_SET_NO":999,"REV_AT_EPOCH":9444,"BSTAR":0,"MEAN_MOTION_DOT":-1.93e-6,"MEAN_MOTION_DDOT":0},{"OBJECT_NAME":"NSS-11","OBJECT_ID":"2000-059A","EPOCH":"2026-04-04T20:28:09.485184","MEAN_MOTION":1.00271751,"ECCENTRICITY":0.00031497,"INCLINATION":1.9374,"RA_OF_ASC_NODE":82.2378,"ARG_OF_PERICENTER":295.2728,"MEAN_ANOMALY":298.6863,"EPHEMERIS_TYPE":0,"CLASSIFICATION_TYPE":"U","NORAD_CAT_ID":26554,"ELEMENT_SET_NO":999,"REV_AT_EPOCH":4055,"BSTAR":0,"MEAN_MOTION_DOT":2.6e-7,"MEAN_MOTION_DDOT":0},{"OBJECT_NAME":"USA 153","OBJECT_ID":"2000-065A","EPOCH":"2026-04-04T17:11:38.580000","MEAN_MOTION":1.00274508,"ECCENTRICITY":0.00035083,"INCLINATION":11.5003,"RA_OF_ASC_NODE":36.02,"ARG_OF_PERICENTER":20.2857,"MEAN_ANOMALY":169.139,"EPHEMERIS_TYPE":0,"CLASSIFICATION_TYPE":"U","NORAD_CAT_ID":26575,"ELEMENT_SET_NO":999,"REV_AT_EPOCH":3219,"BSTAR":0,"MEAN_MOTION_DOT":-3.22e-6,"MEAN_MOTION_DDOT":0},{"OBJECT_NAME":"AMC-6","OBJECT_ID":"2000-067A","EPOCH":"2026-04-04T17:16:40.385568","MEAN_MOTION":1.00273804,"ECCENTRICITY":0.00037425,"INCLINATION":0.0624,"RA_OF_ASC_NODE":57.96,"ARG_OF_PERICENTER":331.3177,"MEAN_ANOMALY":287.8696,"EPHEMERIS_TYPE":0,"CLASSIFICATION_TYPE":"U","NORAD_CAT_ID":26580,"ELEMENT_SET_NO":999,"REV_AT_EPOCH":9315,"BSTAR":0,"MEAN_MOTION_DOT":8.8e-7,"MEAN_MOTION_DDOT":0},{"OBJECT_NAME":"USA 157 (MILSTAR-2 2)","OBJECT_ID":"2001-009A","EPOCH":"2026-04-04T12:02:38.730624","MEAN_MOTION":1.00267796,"ECCENTRICITY":0.00374418,"INCLINATION":11.4631,"RA_OF_ASC_NODE":20.2129,"ARG_OF_PERICENTER":181.8486,"MEAN_ANOMALY":21.4324,"EPHEMERIS_TYPE":0,"CLASSIFICATION_TYPE":"U","NORAD_CAT_ID":26715,"ELEMENT_SET_NO":999,"REV_AT_EPOCH":3220,"BSTAR":0,"MEAN_MOTION_DOT":1.1e-6,"MEAN_MOTION_DDOT":0},{"OBJECT_NAME":"USA 159 (DSP 21)","OBJECT_ID":"2001-033A","EPOCH":"2026-04-04T13:15:38.706912","MEAN_MOTION":0.99202064,"ECCENTRICITY":3.004e-5,"INCLINATION":12.7128,"RA_OF_ASC_NODE":16.9314,"ARG_OF_PERICENTER":358.9647,"MEAN_ANOMALY":209.1132,"EPHEMERIS_TYPE":0,"CLASSIFICATION_TYPE":"U","NORAD_CAT_ID":26880,"ELEMENT_SET_NO":999,"REV_AT_EPOCH":3222,"BSTAR":0,"MEAN_MOTION_DOT":-7.0e-7,"MEAN_MOTION_DDOT":0},{"OBJECT_NAME":"INTELSAT 902 (IS-902)","OBJECT_ID":"2001-039A","EPOCH":"2026-04-04T21:06:18.997920","MEAN_MOTION":1.00271658,"ECCENTRICITY":0.00044894,"INCLINATION":5.9332,"RA_OF_ASC_NODE":72.6627,"ARG_OF_PERICENTER":299.426,"MEAN_ANOMALY":87.5886,"EPHEMERIS_TYPE":0,"CLASSIFICATION_TYPE":"U","NORAD_CAT_ID":26900,"ELEMENT_SET_NO":999,"REV_AT_EPOCH":8996,"BSTAR":0,"MEAN_MOTION_DOT":-2.8e-6,"MEAN_MOTION_DDOT":0},{"OBJECT_NAME":"USA 164 (MILSTAR-2 3)","OBJECT_ID":"2002-001A","EPOCH":"2026-04-04T00:40:38.819712","MEAN_MOTION":1.00271162,"ECCENTRICITY":0.00998811,"INCLINATION":11.0914,"RA_OF_ASC_NODE":22.3517,"ARG_OF_PERICENTER":5.1022,"MEAN_ANOMALY":193.9816,"EPHEMERIS_TYPE":0,"CLASSIFICATION_TYPE":"U","NORAD_CAT_ID":27168,"ELEMENT_SET_NO":999,"REV_AT_EPOCH":3221,"BSTAR":0,"MEAN_MOTION_DOT":9.7e-7,"MEAN_MOTION_DDOT":0},{"OBJECT_NAME":"INTELSAT 904 (IS-904)","OBJECT_ID":"2002-007A","EPOCH":"2026-04-04T19:28:55.183584","MEAN_MOTION":1.00272924,"ECCENTRICITY":0.00075371,"INCLINATION":6.7379,"RA_OF_ASC_NODE":70.0521,"ARG_OF_PERICENTER":326.9133,"MEAN_ANOMALY":56.9155,"EPHEMERIS_TYPE":0,"CLASSIFICATION_TYPE":"U","NORAD_CAT_ID":27380,"ELEMENT_SET_NO":999,"REV_AT_EPOCH":5103,"BSTAR":0,"MEAN_MOTION_DOT":-2.22e-6,"MEAN_MOTION_DDOT":0},{"OBJECT_NAME":"DIRECTV 5 (TEMPO 1)","OBJECT_ID":"2002-023A","EPOCH":"2026-04-04T20:49:14.961792","MEAN_MOTION":1.00272888,"ECCENTRICITY":0.00038082,"INCLINATION":4.6912,"RA_OF_ASC_NODE":76.2083,"ARG_OF_PERICENTER":310.6516,"MEAN_ANOMALY":8.5316,"EPHEMERIS_TYPE":0,"CLASSIFICATION_TYPE":"U","NORAD_CAT_ID":27426,"ELEMENT_SET_NO":999,"REV_AT_EPOCH":8738,"BSTAR":0,"MEAN_MOTION_DOT":-5.5e-7,"MEAN_MOTION_DDOT":0},{"OBJECT_NAME":"INTELSAT 905 (IS-905)","OBJECT_ID":"2002-027A","EPOCH":"2026-04-03T01:54:25.943616","MEAN_MOTION":1.00273159,"ECCENTRICITY":0.00032672,"INCLINATION":6.5662,"RA_OF_ASC_NODE":70.6915,"ARG_OF_PERICENTER":315.6989,"MEAN_ANOMALY":56.4288,"EPHEMERIS_TYPE":0,"CLASSIFICATION_TYPE":"U","NORAD_CAT_ID":27438,"ELEMENT_SET_NO":999,"REV_AT_EPOCH":5061,"BSTAR":0,"MEAN_MOTION_DOT":9.4e-7,"MEAN_MOTION_DDOT":0},{"OBJECT_NAME":"GALAXY 3C (G-3C)","OBJECT_ID":"2002-030A","EPOCH":"2026-04-04T14:02:51.471744","MEAN_MOTION":1.0027205,"ECCENTRICITY":0.00016279,"INCLINATION":3.5406,"RA_OF_ASC_NODE":78.9845,"ARG_OF_PERICENTER":20.4845,"MEAN_ANOMALY":209.2865,"EPHEMERIS_TYPE":0,"CLASSIFICATION_TYPE":"U","NORAD_CAT_ID":27445,"ELEMENT_SET_NO":999,"REV_AT_EPOCH":4575,"BSTAR":0,"MEAN_MOTION_DOT":-1.51e-6,"MEAN_MOTION_DDOT":0},{"OBJECT_NAME":"INTELSAT 906 (IS-906)","OBJECT_ID":"2002-041A","EPOCH":"2026-04-04T21:57:21.682656","MEAN_MOTION":1.00272219,"ECCENTRICITY":0.00033422,"INCLINATION":5.6175,"RA_OF_ASC_NODE":73.8074,"ARG_OF_PERICENTER":310.8672,"MEAN_ANOMALY":202.0349,"EPHEMERIS_TYPE":0,"CLASSIFICATION_TYPE":"U","NORAD_CAT_ID":27513,"ELEMENT_SET_NO":999,"REV_AT_EPOCH":8629,"BSTAR":0,"MEAN_MOTION_DOT":1.6e-7,"MEAN_MOTION_DDOT":0},{"OBJECT_NAME":"NIMIQ 2","OBJECT_ID":"2002-062A","EPOCH":"2026-04-04T20:49:29.938368","MEAN_MOTION":1.00272709,"ECCENTRICITY":0.0006603,"INCLINATION":9.2779,"RA_OF_ASC_NODE":57.6553,"ARG_OF_PERICENTER":318.8072,"MEAN_ANOMALY":19.8987,"EPHEMERIS_TYPE":0,"CLASSIFICATION_TYPE":"U","NORAD_CAT_ID":27632,"ELEMENT_SET_NO":999,"REV_AT_EPOCH":4344,"BSTAR":0,"MEAN_MOTION_DOT":-6.6e-7,"MEAN_MOTION_DDOT":0}]
