UFO 10 (USA 146)        
1 25967U 99063A   26094.21642233 -.00000187  00000+0  00000+0 0  9995
2 25967   9.8490  27.5978 0004581 312.4261 267.4999  1.00276600 96605
ASIASTAR                
1 26107U 00016A   26094.83878992 -.00000331  00000+0  00000+0 0  9994
2 26107   8.9609  58.9264 0005095 325.7866 215.4218  1.00271761 95181
USA 149 (DSP 20)        
1 26356U 00024A   26094.55253133  .00000095  00000+0  00000+0 0  9998
2 26356  13.1164  12.3719 0001619 350.2382 223.9079  1.00267836 32171
TDRS 8                  
1 26388U 00034A   26094.92959999 -.00000193  00000+0  00000+0 0  9998
2 26388  12.5700  31.9344 0005848 329.8279 251.0016  1.00270460 94449
NSS-11                  
1 26554U 00059A   26094.85288756  .00000026  00000+0  00000+0 0  9992
2 26554   1.9374  82.2378 0003149 295.2728 298.6863  1.00271751 40550
USA 153                 
1 26575U 00065A   26094.71641875 -.00000322  00000+0  00000+0 0  9992
2 26575  11.5003  36.0200 0003508  20.2857 169.1390  1.00274508 32199
AMC-6                   
1 26580U 00067A   26094.71991187  .00000088  00000+0  00000+0 0  9992
2 26580   0.0624  57.9600 0003742 331.3177 287.8696  1.00273804 93152
USA 157 (MILSTAR-2 2)   
1 26715U 01009A   26094.50183716  .00000110  00000+0  00000+0 0  9993
2 26715  11.4631  20.2129 0037441 181.8486  21.4324  1.00267796 32201
USA 159 (DSP 21)        
1 26880U 01033A   26094.55253133 -.00000070  00000+0  00000+0 0  9995
2 26880  12.7128  16.9314 0000300 358.9647 209.1132  0.99202064 32225
INTELSAT 902 (IS-902)   
1 26900U 01039A   26094.87938655 -.00000280  00000+0  00000+0 0  9991
2 26900   5.9332  72.6627 0004489 299.4260  87.5886  1.00271658 89962
USA 164 (MILSTAR-2 3)   
1 27168U 02001A   26094.02822708  .00000097  00000+0  00000+0 0  9991
2 27168  11.0914  22.3517 0099881   5.1022 193.9816  1.00271162 32212
INTELSAT 904 (IS-904)   
1 27380U 02007A   26094.81174981 -.00000222  00000+0  00000+0 0  9994
2 27380   6.7379  70.0521 0007537 326.9133  56.9155  1.00272924 51035
DIRECTV 5 (TEMPO 1)     
1 27426U 02023A   26094.86753428 -.00000055  00000+0  00000+0 0  9991
2 27426   4.6912  76.2083 0003808 310.6516   8.5316  1.00272888 87387
INTELSAT 905 (IS-905)   
1 27438U 02027A   26093.07946694  .00000094  00000+0  00000+0 0  9991
2 27438   6.5662  70.6915 0003267 315.6989  56.4288  1.00273159 50611
GALAXY 3C (G-3C)        
1 27445U 02030A   26094.58531796 -.00000151  00000+0  00000+0 0  9998
2 27445   3.5406  78.9845 0001627  20.4845 209.2865  1.00272050 45752
INTELSAT 906 (IS-906)   
1 27513U 02041A   26094.91483429  .00000016  00000+0  00000+0 0  9991
2 27513   5.6175  73.8074 0003342 310.8672 202.0349  1.00272219 86291
NIMIQ 2                 
1 27632U 02062A   26094.86770762 -.00000066  00000+0  00000+0 0  9995
2 27632   9.2779  57.6553 0006603 318.8072  19.8987  1.00272709 43446
